NUSAT-1 (FRESCO)        
1 41557U 16033B   22053.89594575  .00007915  00000+0  26038-3 0  9992
2 41557  97.3875 151.7045 0013293  67.9667 358.2855 15.31707640319839
BEESAT-4                
1 41619U 16040W   22053.87937318  .00007811  00000+0  28915-3 0  9994
2 41619  97.2352 107.7467 0010762 156.4640 203.7094 15.27877282303218
CAS-2T & KS-1Q          
1 41847U 16066G   22053.78175959  .00000635  00000+0  10541-3 0  9993
2 41847  98.5669 118.5157 0364510 192.6071 166.5812 14.38376900277862
NAYIF-1 (EO-88)         
1 42017U 17008BX  22053.65614109  .00010376  00000+0  35011-3 0  9993
2 42017  97.2842 121.6864 0004213 306.7028  53.3826 15.30874430279495
ZHUHAI-1 02 (CAS-4B)    
1 42759U 17034B   22053.92686404  .00001961  00000+0  12858-3 0  9996
2 42759  43.0167 243.4924 0009564 288.5542 216.6527 15.10940206259021
ZHUHAI-1 01 (CAS-4A)    
1 42761U 17034D   22053.90228709  .00001914  00000+0  12558-3 0  9992
2 42761  43.0164 242.4973 0009835 292.2929 206.9467 15.11024680259021
MAX VALIER SAT          
1 42778U 17036P   22053.69777758  .00004467  00000+0  18122-3 0  9990
2 42778  97.2235  98.8026 0011723  21.2912 338.8811 15.25046987259401
RADFXSAT (FOX-1B)       
1 43017U 17073E   22053.70922032  .00002130  00000+0  16701-3 0  9993
2 43017  97.6882 312.5878 0251302 202.9558 156.0266 14.80422486230139
FOX-1D (AO-92)          
1 43137U 18004AC  22053.76629070  .00006144  00000+0  23408-3 0  9994
2 43137  97.3799 130.1110 0009393  54.6715 305.5401 15.27040692228830
DIWATA-2B               
1 43678U 18084H   22053.90566387  .00000188  00000+0  24404-4 0  9999
2 43678  97.9502 185.9846 0008978 310.3865  49.6589 14.91926524180778
ES'HAIL 2               
1 43700U 18090A   22053.61682802  .00000145  00000+0  00000+0 0  9995
2 43700   0.0346 282.4136 0002412  83.9533  33.9682  1.00271828 11872
FOX-1CLIFF (AO-95)      
1 43770U 18099N   22053.75426328  .00001311  00000+0  12242-3 0  9996
2 43770  97.6356 123.0631 0013085 303.8858  56.1118 14.95804392175861
ITASAT 1                
1 43786U 18099AE  22053.82909923  .00000758  00000+0  72549-4 0  9999
2 43786  97.6379 123.9858 0013688 295.5689  64.4117 14.96034402175916
JY1SAT (JO-97)          
1 43803U 18099AX  22053.74519283  .00002015  00000+0  18264-3 0  9997
2 43803  97.6342 123.6415 0013364 295.0229  64.9605 14.96385175175911
UWE-4                   
1 43880U 18111E   22053.69262283  .00002452  00000+0  21551-3 0  9994
2 43880  97.6768 322.0225 0011805 355.0681   5.0423 14.97427745172528
NEXUS (FO-99)           
1 43937U 19003F   22053.85192562  .00006955  00000+0  25672-3 0  9998
2 43937  97.1471  91.8079 0021414 198.5865 161.4595 15.27844779172460
PSAT2 (NO-104)          
1 44354U 19036R   22053.60356527  .00064365  00000+0  72494-3 0  9997
2 44354  28.5235 246.2300 0277780 129.3071 233.2500 15.26371426147046
BRICSAT2 (NO-103)       
1 44355U 19036S   22053.90642752  .00143836 -12494-5  77752-3 0  9999
2 44355  28.5212 138.3480 0140162 305.4645  53.2951 15.65728544148141
JAISAT-1                
1 44419U 19038F   22053.87345294  .00004634  00000+0  24869-3 0  9995
2 44419  97.6234  23.3529 0020779 163.1963 196.9961 15.15269109145698
DUCHIFAT-3              
1 44854U 19089C   22054.12578670  .00002276  00000+0  18492-3 0  9994
2 44854  36.9663  57.6375 0008315   4.1595 355.9210 15.00175205120750
CAS-6 (TO-108)          
1 44881U 19093C   22053.83902071  .00000371  00000+0  53949-4 0  9993
2 44881  97.9020 134.6690 0014454 194.0658 166.0149 14.81574519117803
RS-44 & BREEZE-KM R/B   
1 44909U 19096E   22053.81014260 -.00000003  00000+0 -50023-4 0  9993
2 44909  82.5223 306.4604 0216509 227.6334 130.6260 12.79712016100840
ORBITAL FACTORY 2 (OF-2)
1 45113U 19071C   22053.81978955  .00014171  00000+0  36138-3 0  9993
2 45113  51.6399 260.8548 0011031 122.8456 237.3592 15.39726849115682
HUSKYSAT-1 (HO-107)     
1 45119U 19071J   22053.78153167  .00014554  00000+0  37469-3 0  9998
2 45119  51.6394 260.5837 0010551 119.3516 240.8523 15.39416118115672
BY70-2                  
1 45857U 20042B   22053.88387364  .00003799  00000+0  53037-3 0  9994
2 45857  97.9644 131.9408 0012216 125.5637 234.6697 14.78203537 88527
SALSAT                  
1 46495U 20068K   22053.81183800  .00000980  00000+0  75530-4 0  9995
2 46495  97.7192 355.2127 0015330 310.2463  49.7421 15.03915361 76959
BY70-3                  
1 46839U 20079N   22053.90584366  .00012924  00000+0  35728-3 0  9996
2 46839  97.2124 127.8648 0007173  38.0007  49.4981 15.37132208 72623
RADFXSAT-2 (AO-109)     
1 47311U 21002C   22053.47620177  .00004858  00000+0  21376-3 0  9993
2 47311  60.6853  74.3644 0020490 183.1672 176.9289 15.23260829 60935
UVSQ-SAT                
1 47438U 21006AB  22053.68004978  .00003284  00000+0  18313-3 0  9994
2 47438  97.4540 115.0824 0011237 318.5623  41.4756 15.14226637 59907
DIY-1 (ARDUIQUBE)       
1 47963U 21022AH  22053.68805561  .00009630  00000+0  59745-3 0  9997
2 47963  97.5418 316.6531 0018562 162.7326 197.4538 15.09781919 49616
XW-3 (CAS-9)            
1 50466U 21131B   22053.95736124  .00000060  00000+0  34239-4 0  9998
2 50466  98.5906 131.2306 0005778 124.8983 235.2741 14.38444092  8458
